NORAD_CAT_ID,OBJECT_NAME,OBJECT_TYPE,EPOCH,MEAN_MOTION,ECCENTRICITY,INCLINATION,RA_OF_ASC_NODE,ARG_OF_PERICENTER,MEAN_ANOMALY,BSTAR,MEAN_MOTION_DOT,MEAN_MOTION_DDOT,TLE_LINE0,TLE_LINE1,TLE_LINE2,SEMIMAJOR_AXIS,PERIOD,APOGEE,PERIGEE,DECAYED
49749,STARLINK-3250,PAYLOAD,2022-07-10 12:37:54,15.08823668,0.0001497,53.218,36.3716,58.1141,301.9997,-0.00021223,-3.662e-05,0.0,0 STARLINK-3250,1 49749U 21115AB  22191.52632050 -.00003662  00000-0 -21223-3 0  9993,2 49749  53.2180  36.3716 0001497  58.1141 301.9997 15.08823668 33518,6917.93,95.439,540.831,538.76,0.0
49749,STARLINK-3250,PAYLOAD,2022-07-10 17:24:03,15.08828981,0.0001667,53.2183,35.48,66.1658,293.9509,-0.00018548,-3.238e-05,0.0,0 STARLINK-3250,1 49749U 21115AB  22191.72503814 -.00003238  00000-0 -18548-3 0  9995,2 49749  53.2183  35.4800 0001667  66.1658 293.9509 15.08828981 34654,6917.914,95.438,540.932,538.626,0.0
49749,STARLINK-3250,PAYLOAD,2022-07-10 20:34:49,15.0883538,0.0001578,53.218,34.885,61.3058,298.8093,-0.00011559,-2.127e-05,0.0,0 STARLINK-3250,1 49749U 21115AB  22191.85751242 -.00002127  00000-0 -11559-3 0  9990,2 49749  53.2180  34.8850 0001578  61.3058 298.8093 15.08835380 33563,6917.895,95.438,540.851,538.668,0.0
49749,STARLINK-3250,PAYLOAD,2022-07-10 23:45:35,15.08835066,0.0001607,53.218,34.2902,67.3232,292.793,-6.5253e-05,-1.326e-05,0.0,0 STARLINK-3250,1 49749U 21115AB  22191.98999186 -.00001326  00000-0 -65253-4 0  9996,2 49749  53.2180  34.2902 0001607  67.3232 292.7930 15.08835066 34697,6917.895,95.438,540.872,538.649,0.0
49749,STARLINK-3250,PAYLOAD,2022-07-11 06:07:07,15.08835359,0.000159,53.2179,33.1006,65.6903,294.4255,-1.5751e-06,-3.13e-06,0.0,0 STARLINK-3250,1 49749U 21115AB  22192.25495187 -.00000313  00000-0 -15751-5 0  9993,2 49749  53.2179  33.1006 0001590  65.6903 294.4255 15.08835359 33621,6917.895,95.438,540.86,538.66,0.0
49749,STARLINK-3250,PAYLOAD,2022-07-11 18:50:13,15.08830257,0.000139,53.2176,30.7216,62.8779,297.2354,0.00035147,5.309e-05,0.0,0 STARLINK-3250,1 49749U 21115AB  22192.78487354  .00005309  00000-0  35147-3 0  9995,2 49749  53.2176  30.7216 0001390  62.8779 297.2354 15.08830257 33704,6917.91,95.438,540.737,538.814,0.0
49749,STARLINK-3250,PAYLOAD,2022-07-12 05:57:55,15.08848648,0.000144,53.2168,28.6401,61.5382,298.5756,0.00058534,9.042e-05,0.0,0 STARLINK-3250,1 49749U 21115AB  22193.24855382  .00009042  00000-0  58534-3 0  9990,2 49749  53.2168  28.6401 0001440  61.5382 298.5756 15.08848648 34882,6917.854,95.437,540.715,538.723,0.0
49749,STARLINK-3250,PAYLOAD,2022-07-12 20:16:22,15.08852645,0.0001492,53.2171,25.9643,64.6522,295.4625,0.00032847,4.945e-05,0.0,0 STARLINK-3250,1 49749U 21115AB  22193.84471041  .00004945  00000-0  32847-3 0  9998,2 49749  53.2171  25.9643 0001492  64.6522 295.4625 15.08852645 33861,6917.842,95.437,540.739,538.675,0.0
49749,STARLINK-3250,PAYLOAD,2022-07-13 12:10:13,15.08854802,0.0001528,53.2161,22.99,62.7362,297.3786,0.0001706,2.429e-05,0.0,0 STARLINK-3250,1 49749U 21115AB  22194.50710313  .00002429  00000-0  17060-3 0  9995,2 49749  53.2161  22.9900 0001528  62.7362 297.3786 15.08854802 35075,6917.835,95.437,540.757,538.643,0.0
49749,STARLINK-3250,PAYLOAD,2022-07-13 20:07:10,15.08837435,0.0001536,53.2168,21.5031,65.092,295.0232,-0.0001236,-2.254e-05,0.0,0 STARLINK-3250,1 49749U 21115AB  22194.83831074 -.00002254  00000-0 -12360-3 0  9995,2 49749  53.2168  21.5031 0001536  65.0920 295.0232 15.08837435 35127,6917.888,95.438,540.816,538.691,0.0
49749,STARLINK-3250,PAYLOAD,2022-07-14 12:01:01,15.08836438,0.0001952,53.2168,18.5284,69.7051,290.4151,-0.00012351,-2.253e-05,0.0,0 STARLINK-3250,1 49749U 21115AB  22195.50071287 -.00002253  00000-0 -12351-3 0  9991,2 49749  53.2168  18.5284 0001952  69.7051 290.4151 15.08836438 34110,6917.891,95.438,541.107,538.406,0.0
49749,STARLINK-3250,PAYLOAD,2022-07-14 19:57:57,15.08828799,0.0001667,53.217,17.0414,68.3401,291.7769,-0.00016437,-2.902e-05,0.0,0 STARLINK-3250,1 49749U 21115AB  22195.83191832 -.00002902  00000-0 -16437-3 0  9996,2 49749  53.2170  17.0414 0001667  68.3401 291.7769 15.08828799 34164,6917.915,95.438,540.933,538.626,0.0
49749,STARLINK-3250,PAYLOAD,2022-07-15 05:30:16,15.08838154,0.0001605,53.2178,15.2574,67.7835,292.3328,-3.8638e-05,-9.03e-06,0.0,0 STARLINK-3250,1 49749U 21115AB  22196.22935913 -.00000903  00000-0 -38638-4 0  9993,2 49749  53.2178  15.2574 0001605  67.7835 292.3328 15.08838154 35339,6917.886,95.438,540.861,538.641,0.0
49749,STARLINK-3250,PAYLOAD,2022-07-15 11:51:49,15.08838798,0.0001601,53.2179,14.0683,63.8061,296.3096,8.2725e-06,-1.56e-06,0.0,0 STARLINK-3250,1 49749U 21115AB  22196.49431812 -.00000156  00000-0  82725-5 0  9997,2 49749  53.2179  14.0683 0001601  63.8061 296.3096 15.08838798 34263,6917.884,95.438,540.857,538.642,0.0
49749,STARLINK-3250,PAYLOAD,2022-07-15 18:13:21,15.08840596,0.000162,53.2179,12.879,67.7893,292.3271,8.6074e-05,1.082e-05,0.0,0 STARLINK-3250,1 49749U 21115AB  22196.75927536  .00001082  00000-0  86074-4 0  9997,2 49749  53.2179  12.8790 0001620  67.7893 292.3271 15.08840596 34300,6917.879,95.438,540.864,538.623,0.0
49749,STARLINK-3250,PAYLOAD,2022-07-15 22:59:30,15.08845237,0.0001631,53.2179,11.987,64.6412,295.4749,0.00012542,1.709e-05,0.0,0 STARLINK-3250,1 49749U 21115AB  22196.95799257  .00001709  00000-0  12542-3 0  9990,2 49749  53.2179  11.9870 0001631  64.6412 295.4749 15.08845237 35441,6917.864,95.437,540.858,538.601,0.0
49749,STARLINK-3250,PAYLOAD,2022-07-16 11:42:35,15.08848848,0.0001741,53.2171,9.6078,67.4405,292.6772,0.00033065,4.979e-05,0.0,0 STARLINK-3250,1 49749U 21115AB  22197.48791522  .00004979  00000-0  33065-3 0  9991,2 49749  53.2171   9.6078 0001741  67.4405 292.6772 15.08848848 34414,6917.853,95.437,540.923,538.514,0.0
49749,STARLINK-3250,PAYLOAD,2022-07-16 18:04:08,15.08847274,0.0001723,53.2172,8.4182,65.2103,294.9068,0.00033081,4.982e-05,0.0,0 STARLINK-3250,1 49749U 21115AB  22197.75287755  .00004982  00000-0  33081-3 0  9991,2 49749  53.2172   8.4182 0001723  65.2103 294.9068 15.08847274 35561,6917.858,95.437,540.915,538.531,0.0
49749,STARLINK-3250,PAYLOAD,2022-07-16 21:14:54,15.08850493,0.0001733,53.2172,7.8234,65.2285,294.8887,0.00035279,5.333e-05,0.0,0 STARLINK-3250,1 49749U 21115AB  22197.88535588  .00005333  00000-0  35279-3 0  9997,2 49749  53.2172   7.8234 0001733  65.2285 294.8887 15.08850493 34478,6917.848,95.437,540.912,538.514,0.0
49749,STARLINK-3250,PAYLOAD,2022-07-17 11:33:22,15.0884659,0.0001721,53.2172,5.147,65.8486,294.2686,0.00012292,1.669e-05,0.0,0 STARLINK-3250,1 49749U 21115AB  22198.48151483  .00001669  00000-0  12292-3 0  9990,2 49749  53.2172   5.1470 0001721  65.8486 294.2686 15.08846590 34561,6917.86,95.437,540.916,538.535,0.0
49749,STARLINK-3250,PAYLOAD,2022-07-17 17:54:55,15.08846621,0.000182,53.2155,3.9563,68.8317,291.287,9.0944e-05,1.16e-05,0.0,0 STARLINK-3250,1 49749U 21115AB  22198.74647384  .00001160  00000-0  90944-4 0  9996,2 49749  53.2155   3.9563 0001820  68.8317 291.2870 15.08846621 35712,6917.86,95.437,540.984,538.466,0.0
49749,STARLINK-3250,PAYLOAD,2022-07-18 03:27:14,15.08837244,0.0001662,53.217,2.1743,64.4531,295.6633,-8.6003e-05,-1.656e-05,0.0,0 STARLINK-3250,1 49749U 21115AB  22199.14391752 -.00001656  00000-0 -86003-4 0  9999,2 49749  53.2170   2.1743 0001662  64.4531 295.6633 15.08837244 35776,6917.889,95.438,540.904,538.604,0.0
49749,STARLINK-3250,PAYLOAD,2022-07-18 14:34:57,15.08831172,0.0001592,53.2182,0.0936,63.3985,296.717,-4.3547e-05,-9.81e-06,0.0,0 STARLINK-3250,1 49749U 21115AB  22199.60760689 -.00000981  00000-0 -43547-4 0  9995,2 49749  53.2182   0.0936 0001592  63.3985 296.7170 15.08831172 35843,6917.907,95.438,540.874,538.671,0.0
49749,STARLINK-3250,PAYLOAD,2022-07-18 19:21:06,15.08832742,0.0001677,53.2186,359.2018,67.2137,292.9032,-2.9609e-05,-7.59e-06,0.0,0 STARLINK-3250,1 49749U 21115AB  22199.80632667 -.00000759  00000-0 -29609-4 0  9997,2 49749  53.2186 359.2018 0001677  67.2137 292.9032 15.08832742 34762,6917.903,95.438,540.928,538.607,0.0
49749,STARLINK-3250,PAYLOAD,2022-07-19 11:14:57,15.08843681,0.0001592,53.2184,356.2276,63.1896,296.9259,7.0491e-05,8.34e-06,0.0,0 STARLINK-3250,1 49749U 21115AB  22200.46871888  .00000834  00000-0  70491-4 0  9999,2 49749  53.2184 356.2276 0001592  63.1896 296.9259 15.08843681 35979,6917.869,95.437,540.835,538.633,0.0
49749,STARLINK-3250,PAYLOAD,2022-07-19 19:11:52,15.08853596,0.000157,53.2176,354.7403,62.3961,297.719,0.00027372,4.073e-05,0.0,0 STARLINK-3250,1 49749U 21115AB  22200.79991368  .00004073  00000-0  27372-3 0  9999,2 49749  53.2176 354.7403 0001570  62.3961 297.7190 15.08853596 34917,6917.839,95.437,540.79,538.618,0.0
49749,STARLINK-3250,PAYLOAD,2022-07-20 03:08:48,15.08854541,0.0001586,53.2175,353.2536,62.3939,297.7214,0.00043492,6.643e-05,0.0,0 STARLINK-3250,1 49749U 21115AB  22201.13111446  .00006643  00000-0  43492-3 0  9995,2 49749  53.2175 353.2536 0001586  62.3939 297.7214 15.08854541 36076,6917.836,95.437,540.798,538.604,0.0
49749,STARLINK-3250,PAYLOAD,2022-07-20 14:16:29,15.08862152,0.0001559,53.2171,351.172,62.1504,297.9646,0.00042923,6.554e-05,0.0,0 STARLINK-3250,1 49749U 21115AB  22201.59478821  .00006554  00000-0  42923-3 0  9997,2 49749  53.2171 351.1720 0001559  62.1504 297.9646 15.08862152 35033,6917.813,95.436,540.756,538.599,0.0
49749,STARLINK-3250,PAYLOAD,2022-07-20 19:02:38,15.08857038,0.0001403,53.2169,350.2797,71.3234,288.791,1.9536e-05,2.3e-07,0.0,0 STARLINK-3250,1 49749U 21115AB  22201.79350614  .00000023  00000-0  19536-4 0  9998,2 49749  53.2169 350.2797 0001403  71.3234 288.7910 15.08857038 35066,6917.828,95.436,540.664,538.723,0.0
49749,STARLINK-3250,PAYLOAD,2022-07-21 09:21:07,15.08845624,0.0002301,53.2159,347.6028,47.8744,312.2443,0.00039148,5.949e-05,0.0,0 STARLINK-3250,1 49749U 21115AB  22202.38966571  .00005949  00000-0  39148-3 0  9991,2 49749  53.2159 347.6028 0002301  47.8744 312.2443 15.08845624 36269,6917.863,95.437,541.32,538.136,0.0
